[{"OBJECT_NAME":"CONTECSAT-1","OBJECT_ID":"2024-043V","EPOCH":"2026-03-09T22:02:35.535840","MEAN_MOTION":15.34615346,"ECCENTRICITY":0.00100896,"INCLINATION":97.5476,"RA_OF_ASC_NODE":207.3735,"ARG_OF_PERICENTER":223.9905,"MEAN_ANOMALY":136.0535,"EPHEMERIS_TYPE":0,"CLASSIFICATION_TYPE":"U","NORAD_CAT_ID":59117,"ELEMENT_SET_NO":999,"REV_AT_EPOCH":11201,"BSTAR":0.0004369392,"MEAN_MOTION_DOT":0.00014607,"MEAN_MOTION_DDOT":0},{"OBJECT_NAME":"STARLINK-34847","OBJECT_ID":"2025-176P","EPOCH":"2026-03-09T10:49:04.341216","MEAN_MOTION":15.30216655,"ECCENTRICITY":0.00021248,"INCLINATION":53.1575,"RA_OF_ASC_NODE":153.8531,"ARG_OF_PERICENTER":153.8545,"MEAN_ANOMALY":206.2563,"EPHEMERIS_TYPE":0,"CLASSIFICATION_TYPE":"U","NORAD_CAT_ID":65211,"ELEMENT_SET_NO":999,"REV_AT_EPOCH":3308,"BSTAR":0.0010585297,"MEAN_MOTION_DOT":0.0003114,"MEAN_MOTION_DDOT":0}]
